{
  "type": "FeatureCollection",
  "features": [
    {
      "type": "Feature",
      "properties": {
        "norad_id": 34878,
        "name": "COSMOS 2251 DEB",
        "group": "cosmos-2251-debris",
        "lat": 35.967691310192414,
        "lon": -162.368440185443,
        "alt_km": 1297.0527021896542,
        "timestamp": "2025-12-23T20:42:37.471389+00:00",
        "meta_object_name": "COSMOS 2251 DEB",
        "meta_object_id": "1993-036ACR",
        "meta_epoch": "2025-12-21T20:42:06.269184",
        "meta_mean_motion": 13.44202336,
        "meta_eccentricity": 0.04356411,
        "meta_inclination": 73.9646,
        "meta_ra_of_asc_node": 32.8499,
        "meta_arg_of_pericenter": 14.5745,
        "meta_mean_anomaly": 167.3818,
        "meta_ephemeris_type": 0,
        "meta_classification_type": "U",
        "meta_norad_cat_id": 34878,
        "meta_element_set_no": 999,
        "meta_rev_at_epoch": 81395,
        "meta_bstar": 0.00060891451,
        "meta_mean_motion_dot": 6.05e-06,
        "meta_mean_motion_ddot": 0,
        "tle_line1": "1 34878U 93036ACR 25355.86257256  .00000605  00000+0  60891-3 0  9999",
        "tle_line2": "2 34878  73.9646  32.8499 0435641  14.5745 167.3818 13.44202336813959"
      },
      "geometry": {
        "type": "Point",
        "coordinates": [
          -162.368440185443,
          35.967691310192414
        ]
      }
    },
    {
      "type": "Feature",
      "properties": {
        "norad_id": 34882,
        "name": "COSMOS 2251 DEB",
        "group": "cosmos-2251-debris",
        "lat": -28.54178533625869,
        "lon": -164.6270082225262,
        "alt_km": 634.6116105708934,
        "timestamp": "2025-12-23T20:42:37.471399+00:00",
        "meta_object_name": "COSMOS 2251 DEB",
        "meta_object_id": "1993-036ACV",
        "meta_epoch": "2025-12-22T13:37:59.630592",
        "meta_mean_motion": 14.61613219,
        "meta_eccentricity": 0.00833251,
        "meta_inclination": 74.0449,
        "meta_ra_of_asc_node": 206.7999,
        "meta_arg_of_pericenter": 331.387,
        "meta_mean_anomaly": 28.2735,
        "meta_ephemeris_type": 0,
        "meta_classification_type": "U",
        "meta_norad_cat_id": 34882,
        "meta_element_set_no": 999,
        "meta_rev_at_epoch": 88668,
        "meta_bstar": 0.0001119864,
        "meta_mean_motion_dot": 5.51e-06,
        "meta_mean_motion_ddot": 0,
        "tle_line1": "1 34882U 93036ACV 25356.56805128  .00000551  00000+0  11199-3 0  9996",
        "tle_line2": "2 34882  74.0449 206.7999 0083325 331.3870  28.2735 14.61613219886680"
      },
      "geometry": {
        "type": "Point",
        "coordinates": [
          -164.6270082225262,
          -28.54178533625869
        ]
      }
    },
    {
      "type": "Feature",
      "properties": {
        "norad_id": 34883,
        "name": "COSMOS 2251 DEB",
        "group": "cosmos-2251-debris",
        "lat": -18.788196285804272,
        "lon": 36.45202757894249,
        "alt_km": 753.6428154437126,
        "timestamp": "2025-12-23T20:42:37.471409+00:00",
        "meta_object_name": "COSMOS 2251 DEB",
        "meta_object_id": "1993-036ACW",
        "meta_epoch": "2025-12-23T02:36:33.483168",
        "meta_mean_motion": 14.51787467,
        "meta_eccentricity": 0.00942228,
        "meta_inclination": 74.1995,
        "meta_ra_of_asc_node": 43.3859,
        "meta_arg_of_pericenter": 225.8341,
        "meta_mean_anomaly": 133.505,
        "meta_ephemeris_type": 0,
        "meta_classification_type": "U",
        "meta_norad_cat_id": 34883,
        "meta_element_set_no": 999,
        "meta_rev_at_epoch": 86590,
        "meta_bstar": 0.003571855,
        "meta_mean_motion_dot": 0.00015225,
        "meta_mean_motion_ddot": 0,
        "tle_line1": "1 34883U 93036ACW 25357.10872087  .00015225  00000+0  35719-2 0  9993",
        "tle_line2": "2 34883  74.1995  43.3859 0094222 225.8341 133.5050 14.51787467865904"
      },
      "geometry": {
        "type": "Point",
        "coordinates": [
          36.45202757894249,
          -18.788196285804272
        ]
      }
    },
    {
      "type": "Feature",
      "properties": {
        "norad_id": 34884,
        "name": "COSMOS 2251 DEB",
        "group": "cosmos-2251-debris",
        "lat": 18.96575350259948,
        "lon": 40.10205091304032,
        "alt_km": 594.1601792406273,
        "timestamp": "2025-12-23T20:42:37.471419+00:00",
        "meta_object_name": "COSMOS 2251 DEB",
        "meta_object_id": "1993-036ACX",
        "meta_epoch": "2025-12-23T04:47:03.273216",
        "meta_mean_motion": 14.90506031,
        "meta_eccentricity": 0.00029467,
        "meta_inclination": 74.0167,
        "meta_ra_of_asc_node": 35.779,
        "meta_arg_of_pericenter": 34.3246,
        "meta_mean_anomaly": 26.3077,
        "meta_ephemeris_type": 0,
        "meta_classification_type": "U",
        "meta_norad_cat_id": 34884,
        "meta_element_set_no": 999,
        "meta_rev_at_epoch": 87961,
        "meta_bstar": 0.0025114574,
        "meta_mean_motion_dot": 0.00024585,
        "meta_mean_motion_ddot": 0,
        "tle_line1": "1 34884U 93036ACX 25357.19934344  .00024585  00000+0  25115-2 0  9996",
        "tle_line2": "2 34884  74.0167  35.7790 0002946  34.3246  26.3077 14.90506031879613"
      },
      "geometry": {
        "type": "Point",
        "coordinates": [
          40.10205091304032,
          18.96575350259948
        ]
      }
    },
    {
      "type": "Feature",
      "properties": {
        "norad_id": 34885,
        "name": "COSMOS 2251 DEB",
        "group": "cosmos-2251-debris",
        "lat": 24.55380487985995,
        "lon": -25.439710467254603,
        "alt_km": 720.0685815709621,
        "timestamp": "2025-12-23T20:42:37.471429+00:00",
        "meta_object_name": "COSMOS 2251 DEB",
        "meta_object_id": "1993-036ACY",
        "meta_epoch": "2025-12-22T21:23:32.533728",
        "meta_mean_motion": 14.51553675,
        "meta_eccentricity": 0.0015078,
        "meta_inclination": 74.0301,
        "meta_ra_of_asc_node": 163.9067,
        "meta_arg_of_pericenter": 249.2425,
        "meta_mean_anomaly": 230.1721,
        "meta_ephemeris_type": 0,
        "meta_classification_type": "U",
        "meta_norad_cat_id": 34885,
        "meta_element_set_no": 999,
        "meta_rev_at_epoch": 87626,
        "meta_bstar": 0.00074868,
        "meta_mean_motion_dot": 2.974e-05,
        "meta_mean_motion_ddot": 0,
        "tle_line1": "1 34885U 93036ACY 25356.89134877  .00002974  00000+0  74868-3 0  9994",
        "tle_line2": "2 34885  74.0301 163.9067 0015078 249.2425 230.1721 14.51553675876263"
      },
      "geometry": {
        "type": "Point",
        "coordinates": [
          -25.439710467254603,
          24.55380487985995
        ]
      }
    },
    {
      "type": "Feature",
      "properties": {
        "norad_id": 34886,
        "name": "COSMOS 2251 DEB",
        "group": "cosmos-2251-debris",
        "lat": 27.526866081157756,
        "lon": -31.771803234467445,
        "alt_km": 466.0469142751099,
        "timestamp": "2025-12-23T20:42:37.471439+00:00",
        "meta_object_name": "COSMOS 2251 DEB",
        "meta_object_id": "1993-036ACZ",
        "meta_epoch": "2025-12-19T05:20:10.106016",
        "meta_mean_motion": 15.39455892,
        "meta_eccentricity": 0.0031395,
        "meta_inclination": 73.9504,
        "meta_ra_of_asc_node": 166.9286,
        "meta_arg_of_pericenter": 349.772,
        "meta_mean_anomaly": 10.2844,
        "meta_ephemeris_type": 0,
        "meta_classification_type": "U",
        "meta_norad_cat_id": 34886,
        "meta_element_set_no": 999,
        "meta_rev_at_epoch": 63098,
        "meta_bstar": 0.0012728,
        "meta_mean_motion_dot": 0.00051055,
        "meta_mean_motion_ddot": 0,
        "tle_line1": "1 34886U 93036ACZ 25353.22233919  .00051055  00000+0  12728-2 0  9996",
        "tle_line2": "2 34886  73.9504 166.9286 0031395 349.7720  10.2844 15.39455892630986"
      },
      "geometry": {
        "type": "Point",
        "coordinates": [
          -31.771803234467445,
          27.526866081157756
        ]
      }
    },
    {
      "type": "Feature",
      "properties": {
        "norad_id": 34907,
        "name": "COSMOS 2251 DEB",
        "group": "cosmos-2251-debris",
        "lat": 56.84181606256565,
        "lon": 50.10209692693198,
        "alt_km": 408.01046869668335,
        "timestamp": "2025-12-23T20:42:37.471449+00:00",
        "meta_object_name": "COSMOS 2251 DEB",
        "meta_object_id": "1993-036ADC",
        "meta_epoch": "2025-12-21T12:42:42.511680",
        "meta_mean_motion": 15.49920012,
        "meta_eccentricity": 0.0018559,
        "meta_inclination": 73.9666,
        "meta_ra_of_asc_node": 29.1312,
        "meta_arg_of_pericenter": 328.4772,
        "meta_mean_anomaly": 31.5327,
        "meta_ephemeris_type": 0,
        "meta_classification_type": "U",
        "meta_norad_cat_id": 34907,
        "meta_element_set_no": 999,
        "meta_rev_at_epoch": 88109,
        "meta_bstar": 0.006372,
        "meta_mean_motion_dot": 0.00375951,
        "meta_mean_motion_ddot": 0,
        "tle_line1": "1 34907U 93036ADC 25355.52965870  .00375951  00000+0  63720-2 0  9995",
        "tle_line2": "2 34907  73.9666  29.1312 0018559 328.4772  31.5327 15.49920012881091"
      },
      "geometry": {
        "type": "Point",
        "coordinates": [
          50.10209692693198,
          56.84181606256565
        ]
      }
    }
  ]
}